ARIANE 5 R/B            
1 28499U 04049H   25321.45176771  .00001530  00000+0  17569-3 0  9999
2 28499  98.2509 120.8294 0084562 355.7095   4.3384 14.84937999129133
CZ-2D R/B               
1 28738U 05024B   25321.45275068  .00037237  00000+0  62748-3 0  9990
2 28738  97.3654 328.2683 0008166  77.5016 282.7149 15.51564394122330
ALOS (DAICHI)           
1 28931U 06002A   25321.43236399  .00002744  00000+0  47229-3 0  9996
2 28931  98.1048 273.1057 0000880  58.1495 301.9796 14.69376000 56998
H-2A R/B                
1 28932U 06002B   25321.34339230  .00013684  00000+0  73249-3 0  9991
2 28932  98.2299  94.0350 0054399 263.1235  96.3804 15.13881811 77425
RESURS-DK 1             
1 29228U 06021A   25321.29487213  .00003704  00000+0  22154-3 0  9991
2 29228  69.9314 167.5854 0007140 281.1987  78.8376 15.11959620 70534
CZ-4B R/B               
1 29507U 06046C   25321.35191723  .00007473  00000+0  39264-3 0  9990
2 29507  97.5775   1.5606 0032839 297.8982  61.8926 15.15522431 43023
CZ-2C R/B               
1 31114U 07010B   25321.28520870  .00000293  00000+0  15411-3 0  9991
2 31114  98.3967  75.2188 0057896 260.8157  98.6469 14.20195004963768
COSMO-SKYMED 1          
1 31598U 07023A   25321.49888350  .00005091  00000+0  46487-3 0  9992
2 31598  97.8845 146.7369 0001134  79.6284 280.5064 14.95508307998126
KORONAS-FOTON           
1 33504U 09003A   25321.23135058  .00017331  00000+0  42634-3 0  9993
2 33504  82.4337  32.5169 0011339 195.1446 164.9462 15.40423186928417
CZ-2C R/B               
1 37731U 11030B   25321.46701683  .00002921  00000+0  37692-3 0  9997
2 37731  97.8366 276.1413 0053008 357.3640 114.7814 14.80776914773482
