CCSDS_OMM_VERS = 2.0
CREATION_DATE  = 
ORIGINATOR     = 

OBJECT_NAME    = ARIANE 5 R/B
OBJECT_ID      = 2004-049H
CENTER_NAME    = EARTH
REF_FRAME      = TEME
TIME_SYSTEM    = UTC
MEAN_ELEMENT_THEORY = SGP/SGP4

EPOCH          = 2025-11-17T10:50:32.730144
MEAN_MOTION    = 14.84937999
ECCENTRICITY   = .0084562
INCLINATION    = 98.2509
RA_OF_ASC_NODE = 120.8294
ARG_OF_PERICENTER = 355.7095
MEAN_ANOMALY   = 4.3384

EPHEMERIS_TYPE = 0
CLASSIFICATION_TYPE = U
NORAD_CAT_ID   = 28499
ELEMENT_SET_NO = 999
REV_AT_EPOCH   = 12913
BSTAR          = .17569E-3
MEAN_MOTION_DOT = .153E-4
MEAN_MOTION_DDOT = 0

CCSDS_OMM_VERS = 2.0
CREATION_DATE  = 
ORIGINATOR     = 

OBJECT_NAME    = CZ-2D R/B
OBJECT_ID      = 2005-024B
CENTER_NAME    = EARTH
REF_FRAME      = TEME
TIME_SYSTEM    = UTC
MEAN_ELEMENT_THEORY = SGP/SGP4

EPOCH          = 2025-11-17T10:51:57.658752
MEAN_MOTION    = 15.51564394
ECCENTRICITY   = .0008166
INCLINATION    = 97.3654
RA_OF_ASC_NODE = 328.2683
ARG_OF_PERICENTER = 77.5016
MEAN_ANOMALY   = 282.7149

EPHEMERIS_TYPE = 0
CLASSIFICATION_TYPE = U
NORAD_CAT_ID   = 28738
ELEMENT_SET_NO = 999
REV_AT_EPOCH   = 12233
BSTAR          = .62748E-3
MEAN_MOTION_DOT = .37237E-3
MEAN_MOTION_DDOT = 0

CCSDS_OMM_VERS = 2.0
CREATION_DATE  = 
ORIGINATOR     = 

OBJECT_NAME    = ALOS (DAICHI)
OBJECT_ID      = 2006-002A
CENTER_NAME    = EARTH
REF_FRAME      = TEME
TIME_SYSTEM    = UTC
MEAN_ELEMENT_THEORY = SGP/SGP4

EPOCH          = 2025-11-17T10:22:36.248736
MEAN_MOTION    = 14.69376000
ECCENTRICITY   = .000088
INCLINATION    = 98.1048
RA_OF_ASC_NODE = 273.1057
ARG_OF_PERICENTER = 58.1495
MEAN_ANOMALY   = 301.9796

EPHEMERIS_TYPE = 0
CLASSIFICATION_TYPE = U
NORAD_CAT_ID   = 28931
ELEMENT_SET_NO = 999
REV_AT_EPOCH   = 5699
BSTAR          = .47229E-3
MEAN_MOTION_DOT = .2744E-4
MEAN_MOTION_DDOT = 0

CCSDS_OMM_VERS = 2.0
CREATION_DATE  = 
ORIGINATOR     = 

OBJECT_NAME    = H-2A R/B
OBJECT_ID      = 2006-002B
CENTER_NAME    = EARTH
REF_FRAME      = TEME
TIME_SYSTEM    = UTC
MEAN_ELEMENT_THEORY = SGP/SGP4

EPOCH          = 2025-11-17T08:14:29.094720
MEAN_MOTION    = 15.13881811
ECCENTRICITY   = .0054399
INCLINATION    = 98.2299
RA_OF_ASC_NODE = 94.0350
ARG_OF_PERICENTER = 263.1235
MEAN_ANOMALY   = 96.3804

EPHEMERIS_TYPE = 0
CLASSIFICATION_TYPE = U
NORAD_CAT_ID   = 28932
ELEMENT_SET_NO = 999
REV_AT_EPOCH   = 7742
BSTAR          = .73249E-3
MEAN_MOTION_DOT = .13684E-3
MEAN_MOTION_DDOT = 0

CCSDS_OMM_VERS = 2.0
CREATION_DATE  = 
ORIGINATOR     = 

OBJECT_NAME    = RESURS-DK 1
OBJECT_ID      = 2006-021A
CENTER_NAME    = EARTH
REF_FRAME      = TEME
TIME_SYSTEM    = UTC
MEAN_ELEMENT_THEORY = SGP/SGP4

EPOCH          = 2025-11-17T07:04:36.952032
MEAN_MOTION    = 15.11959620
ECCENTRICITY   = .000714
INCLINATION    = 69.9314
RA_OF_ASC_NODE = 167.5854
ARG_OF_PERICENTER = 281.1987
MEAN_ANOMALY   = 78.8376

EPHEMERIS_TYPE = 0
CLASSIFICATION_TYPE = U
NORAD_CAT_ID   = 29228
ELEMENT_SET_NO = 999
REV_AT_EPOCH   = 7053
BSTAR          = .22154E-3
MEAN_MOTION_DOT = .3704E-4
MEAN_MOTION_DDOT = 0

CCSDS_OMM_VERS = 2.0
CREATION_DATE  = 
ORIGINATOR     = 

OBJECT_NAME    = CZ-4B R/B
OBJECT_ID      = 2006-046C
CENTER_NAME    = EARTH
REF_FRAME      = TEME
TIME_SYSTEM    = UTC
MEAN_ELEMENT_THEORY = SGP/SGP4

EPOCH          = 2025-11-17T08:26:45.648672
MEAN_MOTION    = 15.15522431
ECCENTRICITY   = .0032839
INCLINATION    = 97.5775
RA_OF_ASC_NODE = 1.5606
ARG_OF_PERICENTER = 297.8982
MEAN_ANOMALY   = 61.8926

EPHEMERIS_TYPE = 0
CLASSIFICATION_TYPE = U
NORAD_CAT_ID   = 29507
ELEMENT_SET_NO = 999
REV_AT_EPOCH   = 4302
BSTAR          = .39264E-3
MEAN_MOTION_DOT = .7473E-4
MEAN_MOTION_DDOT = 0

CCSDS_OMM_VERS = 2.0
CREATION_DATE  = 
ORIGINATOR     = 

OBJECT_NAME    = CZ-2C R/B
OBJECT_ID      = 2007-010B
CENTER_NAME    = EARTH
REF_FRAME      = TEME
TIME_SYSTEM    = UTC
MEAN_ELEMENT_THEORY = SGP/SGP4

EPOCH          = 2025-11-17T06:50:42.030816
MEAN_MOTION    = 14.20195004
ECCENTRICITY   = .0057896
INCLINATION    = 98.3967
RA_OF_ASC_NODE = 75.2188
ARG_OF_PERICENTER = 260.8157
MEAN_ANOMALY   = 98.6469

EPHEMERIS_TYPE = 0
CLASSIFICATION_TYPE = U
NORAD_CAT_ID   = 31114
ELEMENT_SET_NO = 999
REV_AT_EPOCH   = 96376
BSTAR          = .15411E-3
MEAN_MOTION_DOT = .293E-5
MEAN_MOTION_DDOT = 0

CCSDS_OMM_VERS = 2.0
CREATION_DATE  = 
ORIGINATOR     = 

OBJECT_NAME    = COSMO-SKYMED 1
OBJECT_ID      = 2007-023A
CENTER_NAME    = EARTH
REF_FRAME      = TEME
TIME_SYSTEM    = UTC
MEAN_ELEMENT_THEORY = SGP/SGP4

EPOCH          = 2025-11-17T11:58:23.534400
MEAN_MOTION    = 14.95508307
ECCENTRICITY   = .0001134
INCLINATION    = 97.8845
RA_OF_ASC_NODE = 146.7369
ARG_OF_PERICENTER = 79.6284
MEAN_ANOMALY   = 280.5064

EPHEMERIS_TYPE = 0
CLASSIFICATION_TYPE = U
NORAD_CAT_ID   = 31598
ELEMENT_SET_NO = 999
REV_AT_EPOCH   = 99812
BSTAR          = .46487E-3
MEAN_MOTION_DOT = .5091E-4
MEAN_MOTION_DDOT = 0

CCSDS_OMM_VERS = 2.0
CREATION_DATE  = 
ORIGINATOR     = 

OBJECT_NAME    = KORONAS-FOTON
OBJECT_ID      = 2009-003A
CENTER_NAME    = EARTH
REF_FRAME      = TEME
TIME_SYSTEM    = UTC
MEAN_ELEMENT_THEORY = SGP/SGP4

EPOCH          = 2025-11-17T05:33:08.690112
MEAN_MOTION    = 15.40423186
ECCENTRICITY   = .001134
INCLINATION    = 82.4337
RA_OF_ASC_NODE = 32.5169
ARG_OF_PERICENTER = 195.1446
MEAN_ANOMALY   = 164.9462

EPHEMERIS_TYPE = 0
CLASSIFICATION_TYPE = U
NORAD_CAT_ID   = 33504
ELEMENT_SET_NO = 999
REV_AT_EPOCH   = 92841
BSTAR          = .42634E-3
MEAN_MOTION_DOT = .17331E-3
MEAN_MOTION_DDOT = 0

CCSDS_OMM_VERS = 2.0
CREATION_DATE  = 
ORIGINATOR     = 

OBJECT_NAME    = CZ-2C R/B
OBJECT_ID      = 2011-030B
CENTER_NAME    = EARTH
REF_FRAME      = TEME
TIME_SYSTEM    = UTC
MEAN_ELEMENT_THEORY = SGP/SGP4

EPOCH          = 2025-11-17T11:12:30.254112
MEAN_MOTION    = 14.80776914
ECCENTRICITY   = .0053008
INCLINATION    = 97.8366
RA_OF_ASC_NODE = 276.1413
ARG_OF_PERICENTER = 357.3640
MEAN_ANOMALY   = 114.7814

EPHEMERIS_TYPE = 0
CLASSIFICATION_TYPE = U
NORAD_CAT_ID   = 37731
ELEMENT_SET_NO = 999
REV_AT_EPOCH   = 77348
BSTAR          = .37692E-3
MEAN_MOTION_DOT = .2921E-4
MEAN_MOTION_DDOT = 0

